AXFV00026
HFDTEDATE:160826
HFPLTPILOTINCHARGE:NKN NKN
HFCM2CREW2:NKN
HFGTYGLIDERTYPE:paraglider
HFGIDGLIDERID:NKN
HFDTMGPSDATUM:WGS84
HFRFWFIRMWAREVERSION:3.03
HFRHWHARDWAREVERSION:Samsung SM-S911B,Android 16
HFFTYFRTYPE:theFlightVario,CLASSIC Vario
HFGPSRECEIVER:Qualcomm GNSS GEN9 2022,Internal,0,0
HFPRSPRESSALTSENSOR:STMicro LPS22HH,Internal,0
HFALGALTGPS:GEO
HFALPALTPRESSURE:ISA
B1611475218372N01306173EA0005100091
B1611485218372N01306173EA0005100091
B1611495218372N01306173EA0005100091
B1611505218372N01306173EA0005100091
B1611515218372N01306173EA0005100091
B1611525218372N01306173EA0005100091
B1611535218372N01306173EA0005100091
B1611545218372N01306173EA0005100091
B1611555218372N01306173EA0005100091
B1611565218372N01306173EA0005100091
B1611575218372N01306173EA0005100091
B1611585218372N01306172EA0005100092
B1611595218372N01306170EA0005100091
B1612005218372N01306169EA0005100091
B1612015218372N01306167EA0005100091
B1612025218372N01306165EA0005100090
B1612035218372N01306163EA0005100089
B1612045218372N01306160EA0005100087
B1612055218373N01306152EA0005100090
B1612065218375N01306144EA0005300092
B1612075218377N01306137EA0005400095
B1612085218379N01306121EA0005500100
B1612095218379N01306113EA0005700102
B1612105218379N01306106EA0005900103
B1612115218379N01306099EA0006000104
B1612125218380N01306092EA0006200106
B1612135218379N01306084EA0006200108
B1612145218379N01306077EA0006300111
B1612155218379N01306069EA0006600115
B1612165218379N01306063EA0006800119
B1612175218379N01306056EA0007100123
B1612185218380N01306050EA0007400127
B1612195218380N01306043EA0007700130
B1612205218381N01306037EA0008000134
B1612215218381N01306030EA0008400138
B1612225218381N01306023EA0008800142
B1612235218382N01306017EA0009200146
B1612245218382N01306011EA0009500150
B1612255218383N01306004EA0009900155
B1612265218384N01305997EA0010300159
B1612275218385N01305990EA0010700164
B1612285218386N01305983EA0011200170
B1612295218387N01305977EA0011600176
B1612305218387N01305971EA0012100181
B1612315218388N01305965EA0012700187
B1612325218389N01305959EA0013200192
B1612335218390N01305952EA0013700197
B1612345218390N01305946EA0014200202
B1612355218391N01305939EA0014700206
B1612365218392N01305933EA0015100210
B1612375218392N01305927EA0015600214
B1612385218393N01305920EA0016000216
B1612395218393N01305912EA0016400220
B1612405218393N01305906EA0016800224
B1612415218394N01305899EA0017200228
B1612425218394N01305892EA0017500232
B1612435218394N01305885EA0017900236
B1612445218394N01305877EA0018300240
B1612455218394N01305870EA0018700244
B1612465218394N01305862EA0019100249
B1612475218395N01305855EA0019500253
B1612485218396N01305848EA0019900258
B1612495218397N01305842EA0020400262
B1612505218398N01305835EA0020800267
B1612515218399N01305828EA0021300271
B1612525218400N01305821EA0021700276
B1612535218400N01305814EA0022100280
B1612545218400N01305806EA0022500284
B1612555218400N01305798EA0022900288
B1612565218400N01305790EA0023400293
B1612575218400N01305783EA0023800298
B1612585218400N01305775EA0024200302
B1612595218399N01305767EA0024700307
B1613005218398N01305758EA0025100312
B1613015218398N01305750EA0025600316
B1613025218398N01305741EA0026000321
B1613035218399N01305733EA0026500326
B1613045218399N01305724EA0027000331
B1613055218400N01305716EA0027400336
B1613065218400N01305707EA0027900340
B1613075218401N01305698EA0028300345
B1613085218401N01305689EA0028700349
B1613095218401N01305680EA0029200353
B1613105218401N01305670EA0029600357
B1613115218401N01305661EA0030000360
B1613125218402N01305652EA0030400363
B1613135218403N01305642EA0030800366
B1613145218403N01305632EA0031100370
B1613155218403N01305622EA0031400374
B1613165218404N01305611EA0031700377
B1613175218405N01305601EA0032100381
B1613185218406N01305591EA0032500385
B1613195218406N01305583EA0032800387
B1613205218407N01305577EA0033100390
B1613215218408N01305572EA0033400390
B1613225218409N01305567EA0033600390
B1613235218410N01305561EA0033700389
B1613245218410N01305555EA0033700388
B1613255218411N01305548EA0033800387
B1613265218412N01305541EA0033900386
B1613275218415N01305535EA0033900386
B1613285218416N01305530EA0033800386
B1613295218418N01305525EA0033800386
B1613305218419N01305520EA0033800385
B1613315218420N01305514EA0033800384
B1613325218422N01305508EA0033800384
B1613335218423N01305502EA0033800385
B1613345218424N01305497EA0033800386
B1613355218423N01305492EA0033800387
B1613365218421N01305487EA0033800387
B1613375218418N01305483EA0033900387
B1613385218414N01305480EA0033900387
B1613395218409N01305479EA0033900387
B1613405218405N01305482EA0033800387
B1613415218400N01305489EA0033800387
B1613425218398N01305498EA0033800387
B1613435218397N01305506EA0033800389
B1613445218397N01305513EA0033800391
B1613455218397N01305520EA0033900390
B1613465218395N01305527EA0034000389
B1613475218394N01305537EA0033800388
B1613485218393N01305547EA0033700387
B1613495218393N01305557EA0033700387
B1613505218391N01305566EA0033800387
B1613515218388N01305574EA0033800386
B1613525218386N01305583EA0033900385
B1613535218384N01305593EA0033800384
B1613545218383N01305601EA0033600381
B1613555218382N01305610EA0033400379
B1613565218380N01305618EA0033100376
B1613575218376N01305628EA0033000373
B1613585218374N01305638EA0032800371
B1613595218375N01305647EA0032600368
B1614005218377N01305655EA0032300365
B1614015218379N01305663EA0032100362
B1614025218381N01305670EA0031900360
B1614035218384N01305677EA0031400358
B1614045218387N01305682EA0031200355
B1614055218391N01305685EA0030900353
B1614065218394N01305688EA0030600352
B1614075218397N01305690EA0030400350
B1614085218399N01305693EA0030100347
B1614095218402N01305696EA0029900345
B1614105218406N01305699EA0029700343
B1614115218410N01305701EA0029600341
B1614125218414N01305703EA0029500341
B1614135218416N01305704EA0029500341
B1614145218419N01305704EA0029400338
B1614155218420N01305701EA0029300336
B1614165218422N01305696EA0029100332
B1614175218423N01305689EA0028900331
B1614185218423N01305682EA0028600330
B1614195218422N01305676EA0028300330
B1614205218422N01305671EA0028200330
B1614215218422N01305666EA0028200329
B1614225218421N01305661EA0028200327
B1614235218420N01305655EA0028200326
B1614245218420N01305648EA0028300325
B1614255218421N01305642EA0028300325
B1614265218420N01305637EA0028200325
B1614275218417N01305632EA0028100325
B1614285218413N01305627EA0028100325
B1614295218407N01305624EA0028000323
B1614305218400N01305624EA0027900323
B1614315218394N01305628EA0027800322
B1614325218390N01305635EA0027700323
B1614335218386N01305642EA0027600324
B1614345218383N01305648EA0027700325
B1614355218381N01305655EA0027600324
B1614365218379N01305662EA0027500323
B1614375218377N01305671EA0027500321
B1614385218374N01305681EA0027400321
B1614395218371N01305689EA0027400320
B1614405218369N01305697EA0027300320
B1614415218368N01305705EA0027200318
B1614425218368N01305714EA0027200317
B1614435218367N01305723EA0027200315
B1614445218365N01305733EA0027100315
B1614455218363N01305741EA0027000314
B1614465218364N01305749EA0026900312
B1614475218365N01305757EA0026700308
B1614485218370N01305761EA0026600304
B1614495218374N01305760EA0026300301
B1614505218375N01305753EA0026000298
B1614515218373N01305744EA0025700297
B1614525218368N01305739EA0025400296
B1614535218363N01305737EA0025200297
B1614545218358N01305738EA0025100296
B1614555218353N01305743EA0025000295
B1614565218349N01305750EA0024900294
B1614575218346N01305759EA0024700293
B1614585218344N01305769EA0024500292
B1614595218343N01305777EA0024500291
B1615005218341N01305785EA0024300288
B1615015218338N01305792EA0024200285
B1615025218334N01305800EA0024000282
B1615035218327N01305804EA0023900279
B1615045218320N01305801EA0023800275
B1615055218316N01305793EA0023500272
B1615065218316N01305784EA0023300270
B1615075218319N01305778EA0023100270
B1615085218322N01305775EA0022900270
B1615095218325N01305777EA0022700269
B1615105218328N01305780EA0022500268
B1615115218330N01305784EA0022500266
B1615125218332N01305789EA0022400264
B1615135218334N01305797EA0022200262
B1615145218334N01305806EA0022000261
B1615155218334N01305815EA0021800261
B1615165218335N01305821EA0021600262
B1615175218336N01305827EA0021400261
B1615185218336N01305834EA0021300259
B1615195218336N01305843EA0021200256
B1615205218335N01305852EA0021200254
B1615215218331N01305861EA0021100252
B1615225218326N01305868EA0020900250
B1615235218319N01305871EA0020900248
B1615245218313N01305871EA0020700247
B1615255218307N01305867EA0020500247
B1615265218304N01305862EA0020400246
B1615275218302N01305855EA0020300245
B1615285218301N01305848EA0020300244
B1615295218301N01305840EA0020300243
B1615305218303N01305834EA0020200243
B1615315218306N01305829EA0020100242
B1615325218310N01305827EA0019900242
B1615335218313N01305826EA0019800241
B1615345218316N01305825EA0019600240
B1615355218320N01305823EA0019600238
B1615365218324N01305822EA0019500237
B1615375218328N01305822EA0019500236
B1615385218331N01305823EA0019400236
B1615395218334N01305822EA0019200235
B1615405218337N01305819EA0019100233
B1615415218340N01305816EA0019000233
B1615425218342N01305812EA0018900232
B1615435218345N01305808EA0018800231
B1615445218346N01305804EA0018800231
B1615455218346N01305799EA0018800230
B1615465218345N01305792EA0018700228
B1615475218343N01305786EA0018600228
B1615485218339N01305781EA0018500227
B1615495218334N01305778EA0018400227
B1615505218328N01305777EA0018300227
B1615515218323N01305777EA0018300227
B1615525218319N01305778EA0018200228
B1615535218314N01305779EA0018200228
B1615545218309N01305783EA0018100226
B1615555218305N01305790EA0018100225
B1615565218303N01305799EA0018000223
B1615575218302N01305808EA0017900223
B1615585218305N01305814EA0017700219
B1615595218308N01305820EA0017500219
B1616005218312N01305823EA0017400219
B1616015218315N01305825EA0017300218
B1616025218319N01305828EA0017200216
B1616035218323N01305832EA0017200216
B1616045218327N01305836EA0017100214
B1616055218330N01305840EA0017000212
B1616065218334N01305843EA0016900212
B1616075218337N01305847EA0016700211
B1616085218340N01305851EA0016600210
B1616095218343N01305855EA0016600208
B1616105218346N01305859EA0016600208
B1616115218350N01305862EA0016500207
B1616125218353N01305863EA0016300206
B1616135218356N01305859EA0016100205
B1616145218359N01305854EA0016000203
B1616155218361N01305849EA0015900202
B1616165218360N01305843EA0015800201
B1616175218359N01305837EA0015700200
B1616185218356N01305830EA0015600199
B1616195218350N01305824EA0015500198
B1616205218345N01305819EA0015400197
B1616215218339N01305818EA0015300194
B1616225218332N01305822EA0015100193
B1616235218327N01305828EA0014900191
B1616245218322N01305835EA0014800191
B1616255218319N01305843EA0014600190
B1616265218316N01305850EA0014500189
B1616275218316N01305858EA0014300188
B1616285218318N01305867EA0014100185
B1616295218321N01305875EA0013900184
B1616305218324N01305881EA0013600184
B1616315218325N01305887EA0013400184
B1616325218327N01305893EA0013200181
B1616335218328N01305899EA0013100179
B1616345218331N01305906EA0013000175
B1616355218332N01305916EA0012900173
B1616365218332N01305926EA0012700172
B1616375218332N01305934EA0012600172
B1616385218332N01305941EA0012600171
B1616395218334N01305947EA0012300170
B1616405218334N01305954EA0012200168
B1616415218333N01305963EA0012200166
B1616425218332N01305972EA0012200165
B1616435218331N01305981EA0012100166
B1616445218332N01305988EA0012000165
B1616455218331N01305995EA0011900165
B1616465218329N01306002EA0011900162
B1616475218327N01306010EA0011900160
B1616485218325N01306018EA0011800159
B1616495218324N01306026EA0011700158
B1616505218322N01306033EA0011600157
B1616515218319N01306039EA0011400156
B1616525218316N01306045EA0011300156
B1616535218313N01306052EA0011200154
B1616545218310N01306060EA0011100154
B1616555218307N01306067EA0011000153
B1616565218304N01306073EA0010900152
B1616575218301N01306079EA0010800151
B1616585218299N01306086EA0010700149
B1616595218297N01306093EA0010700149
B1617005218296N01306101EA0010600147
B1617015218296N01306110EA0010400146
B1617025218296N01306117EA0010200145
B1617035218298N01306125EA0010100144
B1617045218301N01306132EA0009800143
B1617055218304N01306138EA0009600141
B1617065218306N01306143EA0009500139
B1617075218310N01306148EA0009400137
B1617085218313N01306154EA0009300136
B1617095218316N01306159EA0009200134
B1617105218320N01306163EA0009000133
B1617115218325N01306165EA0008900136
B1617125218331N01306162EA0008700134
B1617135218334N01306157EA0008500132
B1617145218335N01306151EA0008300130
B1617155218335N01306145EA0008100130
B1617165218334N01306140EA0008000128
B1617175218332N01306135EA0007800126
B1617185218330N01306130EA0007700124
B1617195218328N01306124EA0007600120
B1617205218327N01306117EA0007400116
B1617215218327N01306110EA0007300113
B1617225218328N01306103EA0007200110
B1617235218330N01306097EA0007000108
B1617245218333N01306091EA0006900107
B1617255218336N01306086EA0006700106
B1617265218338N01306081EA0006600106
B1617275218339N01306075EA0006300104
B1617285218342N01306070EA0006400103
B1617295218345N01306065EA0006400102
B1617305218348N01306060EA0006300101
B1617315218350N01306055EA0006200101
B1617325218351N01306050EA0006100099
B1617335218353N01306045EA0006000097
B1617345218355N01306041EA0005900096
B1617355218357N01306037EA0005700095
B1617365218359N01306034EA0005600094
B1617375218359N01306032EA0005500093
B1617385218360N01306030EA0005400094
B1617395218360N01306029EA0005400093
B1617405218360N01306028EA0005400094
B1617415218361N01306028EA0005300094
B1617425218361N01306028EA0005300094
B1617435218361N01306029EA0005300094
B1617445218361N01306029EA0005300094
B1617455218361N01306029EA0005300094
B1617465218362N01306029EA0005300094
B1617475218362N01306029EA0005300094
Ga4da644bd3d4c506486212e9eb85f10a
