AXFV00026
HFDTEDATE:160826
HFPLTPILOTINCHARGE:NKN NKN
HFCM2CREW2:NKN
HFGTYGLIDERTYPE:paraglider
HFGIDGLIDERID:NKN
HFDTMGPSDATUM:WGS84
HFRFWFIRMWAREVERSION:3.03
HFRHWHARDWAREVERSION:Samsung SM-S911B,Android 16
HFFTYFRTYPE:theFlightVario,CLASSIC Vario
HFGPSRECEIVER:Qualcomm GNSS GEN9 2022,Internal,0,0
HFPRSPRESSALTSENSOR:STMicro LPS22HH,Internal,0
HFALGALTGPS:GEO
HFALPALTPRESSURE:ISA
B1729295218371N01306175EA0005200091
B1729305218371N01306175EA0005200091
B1729315218371N01306175EA0005200091
B1729325218371N01306175EA0005200091
B1729335218371N01306175EA0005200091
B1729345218371N01306175EA0005200091
B1729355218371N01306175EA0005200091
B1729365218371N01306175EA0005200091
B1729375218371N01306175EA0005200091
B1729385218371N01306175EA0005200091
B1729395218371N01306175EA0005200091
B1729405218371N01306175EA0005200091
B1729415218371N01306175EA0005200091
B1729425218371N01306175EA0005200091
B1729435218371N01306175EA0005200091
B1729445218371N01306173EA0005200091
B1729455218372N01306171EA0005200091
B1729465218372N01306168EA0005200091
B1729475218372N01306164EA0005200091
B1729485218372N01306157EA0005200091
B1729495218373N01306150EA0005100092
B1729505218372N01306142EA0005200093
B1729515218372N01306134EA0005200094
B1729525218372N01306125EA0005300096
B1729535218372N01306116EA0005400098
B1729545218371N01306107EA0005600099
B1729555218370N01306098EA0005700102
B1729565218370N01306089EA0005800104
B1729575218370N01306081EA0006000107
B1729585218371N01306073EA0006300111
B1729595218371N01306065EA0006500115
B1730005218371N01306058EA0006800120
B1730015218372N01306050EA0007200124
B1730025218372N01306043EA0007500128
B1730035218371N01306035EA0007900132
B1730045218371N01306027EA0008300137
B1730055218371N01306019EA0008700142
B1730065218371N01306011EA0009100146
B1730075218371N01306004EA0009600151
B1730085218371N01305996EA0010000155
B1730095218371N01305988EA0010500160
B1730105218371N01305980EA0010900165
B1730115218372N01305973EA0011400171
B1730125218372N01305965EA0011800175
B1730135218372N01305958EA0012300180
B1730145218373N01305950EA0012800185
B1730155218374N01305943EA0013300189
B1730165218374N01305935EA0013700194
B1730175218375N01305928EA0014200199
B1730185218375N01305920EA0014600204
B1730195218375N01305912EA0015100209
B1730205218376N01305904EA0015600214
B1730215218376N01305896EA0016100219
B1730225218376N01305888EA0016600224
B1730235218376N01305880EA0017100230
B1730245218377N01305872EA0017600235
B1730255218377N01305864EA0018100240
B1730265218377N01305857EA0018600245
B1730275218378N01305849EA0019100251
B1730285218378N01305841EA0019600255
B1730295218379N01305832EA0020100260
B1730305218380N01305824EA0020600265
B1730315218381N01305816EA0021000269
B1730325218382N01305807EA0021500274
B1730335218382N01305799EA0021900278
B1730345218383N01305790EA0022400283
B1730355218383N01305781EA0022900288
B1730365218384N01305773EA0023300293
B1730375218384N01305764EA0023800297
B1730385218385N01305755EA0024200302
B1730395218386N01305746EA0024700306
B1730405218386N01305737EA0025100310
B1730415218387N01305728EA0025500315
B1730425218387N01305718EA0026000320
B1730435218388N01305709EA0026400324
B1730445218388N01305700EA0026800328
B1730455218388N01305691EA0027200332
B1730465218388N01305681EA0027700336
B1730475218388N01305671EA0028100341
B1730485218389N01305662EA0028500345
B1730495218389N01305652EA0028900349
B1730505218389N01305642EA0029300352
B1730515218390N01305632EA0029700355
B1730525218390N01305622EA0030000358
B1730535218391N01305612EA0030300360
B1730545218391N01305602EA0030700363
B1730555218392N01305592EA0031000366
B1730565218392N01305581EA0031300369
B1730575218393N01305570EA0031600372
B1730585218394N01305561EA0031800374
B1730595218394N01305553EA0032100376
B1731005218394N01305547EA0032400376
B1731015218394N01305541EA0032500375
B1731025218394N01305535EA0032700372
B1731035218394N01305527EA0032700369
B1731045218395N01305518EA0032500367
B1731055218395N01305510EA0032400367
B1731065218394N01305502EA0032200367
B1731075218394N01305496EA0032300366
B1731085218394N01305490EA0032200365
B1731095218394N01305483EA0032100363
B1731105218394N01305476EA0032000361
B1731115218393N01305468EA0031800359
B1731125218393N01305459EA0031700357
B1731135218393N01305451EA0031500356
B1731145218393N01305445EA0031400354
B1731155218393N01305440EA0031100351
B1731165218393N01305433EA0030800345
B1731175218392N01305424EA0030500341
B1731185218391N01305416EA0030200338
B1731195218388N01305408EA0029900335
B1731205218384N01305402EA0029500332
B1731215218378N01305397EA0029200328
B1731225218372N01305393EA0028900325
B1731235218366N01305390EA0028500322
B1731245218360N01305389EA0028200320
B1731255218354N01305388EA0027900318
B1731265218348N01305387EA0027700316
B1731275218342N01305386EA0027400314
B1731285218335N01305385EA0027100312
B1731295218329N01305384EA0027000311
B1731305218323N01305383EA0026900310
B1731315218317N01305384EA0026800309
B1731325218311N01305385EA0026800308
B1731335218306N01305389EA0026600306
B1731345218301N01305395EA0026500304
B1731355218297N01305403EA0026300303
B1731365218295N01305411EA0026100301
B1731375218295N01305419EA0025800300
B1731385218297N01305426EA0025500299
B1731395218298N01305433EA0025300298
B1731405218298N01305440EA0025100297
B1731415218298N01305447EA0024900296
B1731425218299N01305453EA0024800295
B1731435218299N01305460EA0024800294
B1731445218300N01305466EA0024800293
B1731455218300N01305473EA0024800292
B1731465218300N01305479EA0024900290
B1731475218302N01305485EA0024800289
B1731485218304N01305489EA0024700286
B1731495218307N01305493EA0024600285
B1731505218311N01305489EA0024400282
B1731515218313N01305482EA0024200279
B1731525218313N01305472EA0023900276
B1731535218307N01305464EA0023700274
B1731545218299N01305463EA0023400274
B1731555218292N01305468EA0023200273
B1731565218288N01305476EA0023000273
B1731575218286N01305484EA0022800273
B1731585218285N01305491EA0022600272
B1731595218284N01305497EA0022600271
B1732005218284N01305504EA0022500270
B1732015218284N01305512EA0022300269
B1732025218284N01305520EA0022100267
B1732035218286N01305528EA0022000266
B1732045218286N01305536EA0021800265
B1732055218286N01305544EA0021700265
B1732065218287N01305551EA0021500264
B1732075218287N01305557EA0021300261
B1732085218289N01305564EA0021200259
B1732095218291N01305572EA0021200257
B1732105218291N01305581EA0020800257
B1732115218291N01305589EA0020500257
B1732125218292N01305596EA0020300255
B1732135218293N01305604EA0020400255
B1732145218294N01305611EA0020400253
B1732155218294N01305619EA0020600253
B1732165218295N01305627EA0020700252
B1732175218297N01305633EA0020600252
B1732185218299N01305638EA0020300249
B1732195218302N01305642EA0020100248
B1732205218305N01305646EA0020000247
B1732215218307N01305652EA0020000246
B1732225218309N01305658EA0020000246
B1732235218310N01305664EA0019900245
B1732245218312N01305670EA0019800244
B1732255218313N01305677EA0019800242
B1732265218314N01305684EA0019600241
B1732275218314N01305692EA0019600239
B1732285218313N01305701EA0019400238
B1732295218312N01305708EA0019300238
B1732305218311N01305716EA0019200237
B1732315218311N01305723EA0019100236
B1732325218310N01305729EA0019100236
B1732335218308N01305736EA0019100234
B1732345218308N01305743EA0019000234
B1732355218309N01305750EA0018800233
B1732365218310N01305758EA0018700232
B1732375218310N01305765EA0018600231
B1732385218311N01305773EA0018600230
B1732395218310N01305781EA0018500229
B1732405218311N01305788EA0018500229
B1732415218312N01305796EA0018400229
B1732425218314N01305802EA0018400228
B1732435218316N01305808EA0018300227
B1732445218319N01305812EA0018300228
B1732455218321N01305814EA0018200225
B1732465218325N01305813EA0018100223
B1732475218328N01305810EA0018000222
B1732485218331N01305805EA0017900222
B1732495218332N01305798EA0017700221
B1732505218332N01305791EA0017600220
B1732515218331N01305783EA0017400218
B1732525218329N01305776EA0017400217
B1732535218324N01305769EA0017400215
B1732545218319N01305765EA0017300213
B1732555218312N01305764EA0017200212
B1732565218306N01305767EA0017100210
B1732575218299N01305773EA0017000209
B1732585218296N01305782EA0016800208
B1732595218296N01305791EA0016600207
B1733005218297N01305798EA0016300206
B1733015218299N01305803EA0016200206
B1733025218302N01305807EA0016200206
B1733035218304N01305810EA0016200205
B1733045218306N01305814EA0016000204
B1733055218309N01305818EA0015900202
B1733065218312N01305823EA0015900201
B1733075218315N01305827EA0015900200
B1733085218318N01305830EA0015700199
B1733095218320N01305831EA0015500198
B1733105218324N01305830EA0015500197
B1733115218328N01305828EA0015400195
B1733125218330N01305824EA0015400195
B1733135218332N01305817EA0015300194
B1733145218332N01305810EA0015200193
B1733155218329N01305802EA0015100192
B1733165218325N01305796EA0015000191
B1733175218320N01305792EA0014900191
B1733185218313N01305792EA0014800189
B1733195218307N01305794EA0014700189
B1733205218301N01305800EA0014500187
B1733215218298N01305808EA0014400186
B1733225218296N01305816EA0014300184
B1733235218298N01305824EA0014100183
B1733245218301N01305830EA0013800183
B1733255218303N01305834EA0013800184
B1733265218305N01305838EA0013800183
B1733275218306N01305843EA0013800181
B1733285218308N01305848EA0013700179
B1733295218310N01305854EA0013700177
B1733305218311N01305860EA0013600176
B1733315218311N01305868EA0013500175
B1733325218310N01305874EA0013400174
B1733335218310N01305881EA0013300173
B1733345218309N01305887EA0013200172
B1733355218308N01305892EA0013100172
B1733365218307N01305899EA0013000171
B1733375218306N01305905EA0013000171
B1733385218306N01305911EA0012800170
B1733395218305N01305917EA0012600169
B1733405218304N01305923EA0012500167
B1733415218303N01305930EA0012400167
B1733425218302N01305937EA0012400166
B1733435218300N01305944EA0012300165
B1733445218299N01305950EA0012200164
B1733455218299N01305956EA0012100164
B1733465218298N01305962EA0012000163
B1733475218297N01305968EA0012000162
B1733485218296N01305975EA0011900161
B1733495218295N01305980EA0011700160
B1733505218295N01305987EA0011700160
B1733515218294N01305993EA0011600158
B1733525218294N01305999EA0011500157
B1733535218293N01306005EA0011400157
B1733545218293N01306011EA0011200155
B1733555218293N01306017EA0011100155
B1733565218293N01306024EA0011100154
B1733575218292N01306029EA0011000152
B1733585218292N01306035EA0010900151
B1733595218291N01306041EA0010800151
B1734005218290N01306046EA0010700150
B1734015218290N01306053EA0010600148
B1734025218289N01306058EA0010500148
B1734035218288N01306064EA0010400147
B1734045218287N01306070EA0010300147
B1734055218286N01306076EA0010200145
B1734065218284N01306083EA0010200143
B1734075218283N01306090EA0010100143
B1734085218282N01306096EA0010000142
B1734095218283N01306101EA0009900141
B1734105218285N01306106EA0009700139
B1734115218286N01306111EA0009600139
B1734125218287N01306116EA0009500137
B1734135218289N01306120EA0009300136
B1734145218291N01306123EA0009200135
B1734155218292N01306127EA0009100134
B1734165218294N01306131EA0009000135
B1734175218295N01306134EA0008900134
B1734185218297N01306137EA0008800133
B1734195218298N01306140EA0008700132
B1734205218300N01306144EA0008600131
B1734215218302N01306147EA0008500131
B1734225218305N01306150EA0008300130
B1734235218307N01306153EA0008200129
B1734245218309N01306157EA0008200128
B1734255218311N01306160EA0008100126
B1734265218313N01306163EA0008000125
B1734275218315N01306166EA0008000124
B1734285218317N01306168EA0008000123
B1734295218320N01306172EA0007900122
B1734305218323N01306174EA0007700120
B1734315218326N01306175EA0007600117
B1734325218329N01306172EA0007500117
B1734335218332N01306167EA0007300115
B1734345218333N01306161EA0007000114
B1734355218333N01306154EA0006800113
B1734365218334N01306149EA0006700112
B1734375218335N01306145EA0006700110
B1734385218336N01306140EA0006600107
B1734395218337N01306134EA0006600106
B1734405218339N01306128EA0006600104
B1734415218341N01306123EA0006600103
B1734425218342N01306118EA0006300102
B1734435218343N01306113EA0006200100
B1734445218344N01306107EA0006100100
B1734455218345N01306100EA0006100097
B1734465218347N01306094EA0006100096
B1734475218349N01306088EA0006000095
B1734485218349N01306084EA0005900094
B1734495218350N01306081EA0005700094
B1734505218351N01306078EA0005700094
B1734515218351N01306076EA0005600094
B1734525218352N01306075EA0005600094
B1734535218352N01306074EA0005500094
B1734545218352N01306074EA0005500094
B1734555218353N01306073EA0005500094
B1734565218353N01306073EA0005500094
B1734575218353N01306073EA0005500094
B1734585218353N01306073EA0005400094
B1734595218353N01306073EA0005400094
Ge2c7144be6efd96391e3638780bd2b38
