<?xml version="1.0" encoding="UTF-8"?>
<kml xmlns="http://earth.google.com/kml/2.1">
  <Document>
    <Folder>
      <name>Waypoints</name>
      <Placemark>
        <name>100ACR</name>
        <description>100ACR</description>
        <Point>
        <coordinates>-123.048511,42.179361,457.000000</coordinates>
        </Point>
      </Placemark>
      <Placemark>
        <name>AMENT</name>
        <description>AMENT</description>
        <Point>
        <coordinates>-123.287212,42.431086,296.000000</coordinates>
        </Point>
      </Placemark>
      <Placemark>
        <name>ANDERS</name>
        <description>ANDERS</description>
        <Point>
        <coordinates>-122.896978,42.202004,1567.000000</coordinates>
        </Point>
      </Placemark>
      <Placemark>
        <name>ANDREW</name>
        <description>ANDREW</description>
        <Point>
        <coordinates>-122.932683,42.263120,826.000000</coordinates>
        </Point>
      </Placemark>
      <Placemark>
        <name>APLINN</name>
        <description>APLINN</description>
        <Point>
        <coordinates>-123.232264,42.303198,368.000000</coordinates>
        </Point>
      </Placemark>
      <Placemark>
        <name>APPLEG</name>
        <description>APPLEG</description>
        <Point>
        <coordinates>-123.152934,42.254797,412.000000</coordinates>
        </Point>
      </Placemark>
      <Placemark>
        <name>APPSTR</name>
        <description>APPSTR</description>
        <Point>
        <coordinates>-123.166759,42.256588,388.000000</coordinates>
        </Point>
      </Placemark>
      <Placemark>
        <name>BAILLZ</name>
        <description>BAILLZ</description>
        <Point>
        <coordinates>-123.025310,42.247583,511.000000</coordinates>
        </Point>
      </Placemark>
      <Placemark>
        <name>BALD-H</name>
        <description>BALD-H</description>
        <Point>
        <coordinates>-123.201469,42.324979,862.000000</coordinates>
        </Point>
      </Placemark>
      <Placemark>
        <name>BALDY</name>
        <description>BALDY</description>
        <Point>
        <coordinates>-123.068718,42.314346,1211.000000</coordinates>
        </Point>
      </Placemark>
      <Placemark>
        <name>BARR-R</name>
        <description>BARR-R</description>
        <Point>
        <coordinates>-122.904498,42.235685,952.000000</coordinates>
        </Point>
      </Placemark>
      <Placemark>
        <name>BILLY</name>
        <description>BILLY</description>
        <Point>
        <coordinates>-123.176484,42.283169,1105.000000</coordinates>
        </Point>
      </Placemark>
      <Placemark>
        <name>BILNGS</name>
        <description>BILNGS</description>
        <Point>
        <coordinates>-122.723136,42.211983,530.000000</coordinates>
        </Point>
      </Placemark>
      <Placemark>
        <name>BLUIE</name>
        <description>BLUIE</description>
        <Point>
        <coordinates>-123.275824,42.381968,1151.000000</coordinates>
        </Point>
      </Placemark>
      <Placemark>
        <name>BOAZ-M</name>
        <description>BOAZ-M</description>
        <Point>
        <coordinates>-123.045314,42.132133,1042.000000</coordinates>
        </Point>
      </Placemark>
      <Placemark>
        <name>BUNCOM</name>
        <description>BUNCOM</description>
        <Point>
        <coordinates>-122.997312,42.174202,510.000000</coordinates>
        </Point>
      </Placemark>
      <Placemark>
        <name>BURNT</name>
        <description>BURNT</description>
        <Point>
        <coordinates>-122.993987,42.253080,1016.000000</coordinates>
        </Point>
      </Placemark>
      <Placemark>
        <name>CAMERO</name>
        <description>CAMERO</description>
        <Point>
        <coordinates>-123.042746,42.199682,443.000000</coordinates>
        </Point>
      </Placemark>
      <Placemark>
        <name>CEMETA</name>
        <description>CEMETA</description>
        <Point>
        <coordinates>-122.937356,42.283035,794.000000</coordinates>
        </Point>
      </Placemark>
      <Placemark>
        <name>CHASLZ</name>
        <description>CHASLZ</description>
        <Point>
        <coordinates>-123.182487,42.232418,432.000000</coordinates>
        </Point>
      </Placemark>
      <Placemark>
        <name>COTGRV</name>
        <description>COTGRV</description>
        <Point>
        <coordinates>-123.506567,41.599188,280.000000</coordinates>
        </Point>
      </Placemark>
      <Placemark>
        <name>COWHOR</name>
        <description>COWHOR</description>
        <Point>
        <coordinates>-123.045793,42.159522,469.000000</coordinates>
        </Point>
      </Placemark>
      <Placemark>
        <name>DARK-H</name>
        <description>DARK-H</description>
        <Point>
        <coordinates>-122.867720,42.256498,608.000000</coordinates>
        </Point>
      </Placemark>
      <Placemark>
        <name>DONATO</name>
        <description>DONATO</description>
        <Point>
        <coordinates>-122.813187,42.228151,594.000000</coordinates>
        </Point>
      </Placemark>
      <Placemark>
        <name>DRAPER</name>
        <description>DRAPER</description>
        <Point>
        <coordinates>-123.120648,42.355381,452.000000</coordinates>
        </Point>
      </Placemark>
      <Placemark>
        <name>E-LAKE</name>
        <description>E-LAKE</description>
        <Point>
        <coordinates>-123.045558,42.166125,467.000000</coordinates>
        </Point>
      </Placemark>
      <Placemark>
        <name>EAGLEP</name>
        <description>EAGLEP</description>
        <Point>
        <coordinates>-122.812869,42.474855,400.000000</coordinates>
        </Point>
      </Placemark>
      <Placemark>
        <name>EMG-LK</name>
        <description>EMG-LK</description>
        <Point>
        <coordinates>-122.624642,42.152333,695.000000</coordinates>
        </Point>
      </Placemark>
      <Placemark>
        <name>EVANS</name>
        <description>EVANS</description>
        <Point>
        <coordinates>-123.182488,42.505636,341.000000</coordinates>
        </Point>
      </Placemark>
      <Placemark>
        <name>FLYAIR</name>
        <description>FLYAIR</description>
        <Point>
        <coordinates>-123.071465,42.243331,466.000000</coordinates>
        </Point>
      </Placemark>
      <Placemark>
        <name>FOREST</name>
        <description>FOREST</description>
        <Point>
        <coordinates>-123.047317,42.286996,605.000000</coordinates>
        </Point>
      </Placemark>
      <Placemark>
        <name>FORT-B</name>
        <description>FORT-B</description>
        <Point>
        <coordinates>-123.148369,42.406719,302.000000</coordinates>
        </Point>
      </Placemark>
      <Placemark>
        <name>GALICE</name>
        <description>GALICE</description>
        <Point>
        <coordinates>-123.594954,42.565629,215.000000</coordinates>
        </Point>
      </Placemark>
      <Placemark>
        <name>GOLD-H</name>
        <description>GOLD-H</description>
        <Point>
        <coordinates>-123.050550,42.431804,333.000000</coordinates>
        </Point>
      </Placemark>
      <Placemark>
        <name>GRANTS</name>
        <description>GRANTS</description>
        <Point>
        <coordinates>-123.254797,42.379153,1164.000000</coordinates>
        </Point>
      </Placemark>
      <Placemark>
        <name>HART</name>
        <description>HART</description>
        <Point>
        <coordinates>-123.050997,42.158539,482.000000</coordinates>
        </Point>
      </Placemark>
      <Placemark>
        <name>HERL-R</name>
        <description>HERL-R</description>
        <Point>
        <coordinates>-123.032116,42.282517,872.000000</coordinates>
        </Point>
      </Placemark>
      <Placemark>
        <name>HERLIN</name>
        <description>HERLIN</description>
        <Point>
        <coordinates>-123.021998,42.274783,559.000000</coordinates>
        </Point>
      </Placemark>
      <Placemark>
        <name>HULLRD</name>
        <description>HULLRD</description>
        <Point>
        <coordinates>-122.911817,42.306147,452.000000</coordinates>
        </Point>
      </Placemark>
      <Placemark>
        <name>JACKSO</name>
        <description>JACKSO</description>
        <Point>
        <coordinates>-122.984717,42.286996,784.000000</coordinates>
        </Point>
      </Placemark>
      <Placemark>
        <name>JOHNS</name>
        <description>JOHNS</description>
        <Point>
        <coordinates>-122.977669,42.356874,855.000000</coordinates>
        </Point>
      </Placemark>
      <Placemark>
        <name>JVILLE</name>
        <description>JVILLE</description>
        <Point>
        <coordinates>-122.976067,42.323713,535.000000</coordinates>
        </Point>
      </Placemark>
      <Placemark>
        <name>JVL-LZ</name>
        <description>JVL-LZ</description>
        <Point>
        <coordinates>-122.959532,42.312649,472.000000</coordinates>
        </Point>
      </Placemark>
      <Placemark>
        <name>KING-F</name>
        <description>KiNG-F</description>
        <Point>
        <coordinates>-123.066070,42.142428,486.000000</coordinates>
        </Point>
      </Placemark>
      <Placemark>
        <name>LOGGIN</name>
        <description>LOGGIN</description>
        <Point>
        <coordinates>-122.927760,42.231244,1075.000000</coordinates>
        </Point>
      </Placemark>
      <Placemark>
        <name>LONSWD</name>
        <description>LONSWD</description>
        <Point>
        <coordinates>-123.055517,42.232469,446.000000</coordinates>
        </Point>
      </Placemark>
      <Placemark>
        <name>LOOPRD</name>
        <description>LOOPRD</description>
        <Point>
        <coordinates>-123.300444,42.396586,403.000000</coordinates>
        </Point>
      </Placemark>
      <Placemark>
        <name>LW-RAB</name>
        <description>LW-RAB</description>
        <Point>
        <coordinates>-123.044295,42.249856,748.000000</coordinates>
        </Point>
      </Placemark>
      <Placemark>
        <name>MARTIN</name>
        <description>MARTIN</description>
        <Point>
        <coordinates>-123.159319,42.531931,344.000000</coordinates>
        </Point>
      </Placemark>
      <Placemark>
        <name>MILLER</name>
        <description>MILLER</description>
        <Point>
        <coordinates>-123.103531,42.417098,717.000000</coordinates>
        </Point>
      </Placemark>
      <Placemark>
        <name>MT-ISA</name>
        <description>MT-ISA</description>
        <Point>
        <coordinates>-123.104728,42.303161,1360.000000</coordinates>
        </Point>
      </Placemark>
      <Placemark>
        <name>MTBALD</name>
        <description>MTBALD</description>
        <Point>
        <coordinates>-123.283379,42.411373,837.000000</coordinates>
        </Point>
      </Placemark>
      <Placemark>
        <name>MULE-M</name>
        <description>MULE-M</description>
        <Point>
        <coordinates>-123.075112,42.088598,1074.000000</coordinates>
        </Point>
      </Placemark>
      <Placemark>
        <name>MULELZ</name>
        <description>MULELZ</description>
        <Point>
        <coordinates>-123.097756,42.093715,534.000000</coordinates>
        </Point>
      </Placemark>
      <Placemark>
        <name>MURPHY</name>
        <description>MURPHY</description>
        <Point>
        <coordinates>-123.333332,42.347665,323.000000</coordinates>
        </Point>
      </Placemark>
      <Placemark>
        <name>NAVAL</name>
        <description>NAVAL</description>
        <Point>
        <coordinates>-122.945050,42.346821,427.000000</coordinates>
        </Point>
      </Placemark>
      <Placemark>
        <name>NELSON</name>
        <description>NELSON</description>
        <Point>
        <coordinates>-122.946779,42.239954,1057.000000</coordinates>
        </Point>
      </Placemark>
      <Placemark>
        <name>NO-TAL</name>
        <description>NO-TAL</description>
        <Point>
        <coordinates>-122.781008,42.235053,514.000000</coordinates>
        </Point>
      </Placemark>
      <Placemark>
        <name>NOLZ01</name>
        <description>NOLZ01</description>
        <Point>
        <coordinates>-123.026008,42.233713,0.000000</coordinates>
        </Point>
      </Placemark>
      <Placemark>
        <name>NOLZ02</name>
        <description>NOLZ02</description>
        <Point>
        <coordinates>-123.028422,42.239450,0.000000</coordinates>
        </Point>
      </Placemark>
      <Placemark>
        <name>NOLZ03</name>
        <description>NOLZ03</description>
        <Point>
        <coordinates>-123.067822,42.236965,0.000000</coordinates>
        </Point>
      </Placemark>
      <Placemark>
        <name>NOLZ04</name>
        <description>NOLZ04</description>
        <Point>
        <coordinates>-123.080069,42.241794,0.000000</coordinates>
        </Point>
      </Placemark>
      <Placemark>
        <name>NOLZ05</name>
        <description>NOLZ05</description>
        <Point>
        <coordinates>-123.005930,42.279009,0.000000</coordinates>
        </Point>
      </Placemark>
      <Placemark>
        <name>NOLZ06</name>
        <description>NOLZ06</description>
        <Point>
        <coordinates>-122.976484,42.280555,0.000000</coordinates>
        </Point>
      </Placemark>
      <Placemark>
        <name>NOLZ07</name>
        <description>NOLZ07</description>
        <Point>
        <coordinates>-122.970908,42.273223,0.000000</coordinates>
        </Point>
      </Placemark>
      <Placemark>
        <name>NOLZ08</name>
        <description>NOLZ08</description>
        <Point>
        <coordinates>-122.881018,42.257467,0.000000</coordinates>
        </Point>
      </Placemark>
      <Placemark>
        <name>NOLZ09</name>
        <description>NOLZ09</description>
        <Point>
        <coordinates>-123.181732,42.256439,0.000000</coordinates>
        </Point>
      </Placemark>
      <Placemark>
        <name>NOLZ10</name>
        <description>NOLZ10</description>
        <Point>
        <coordinates>-123.213017,42.272723,0.000000</coordinates>
        </Point>
      </Placemark>
      <Placemark>
        <name>NOLZ11</name>
        <description>NOLZ11</description>
        <Point>
        <coordinates>-123.222316,42.293041,370.000000</coordinates>
        </Point>
      </Placemark>
      <Placemark>
        <name>NOLZ21</name>
        <description>NOLZ21</description>
        <Point>
        <coordinates>-123.098056,42.084681,0.000000</coordinates>
        </Point>
      </Placemark>
      <Placemark>
        <name>NUGGET</name>
        <description>NUGGET</description>
        <Point>
        <coordinates>-123.057134,42.452740,812.000000</coordinates>
        </Point>
      </Placemark>
      <Placemark>
        <name>OFF-RG</name>
        <description>OFF-RG</description>
        <Point>
        <coordinates>-123.084217,42.216114,818.000000</coordinates>
        </Point>
      </Placemark>
      <Placemark>
        <name>OLD-BL</name>
        <description>OLD-BL</description>
        <Point>
        <coordinates>-123.158911,42.307736,1254.000000</coordinates>
        </Point>
      </Placemark>
      <Placemark>
        <name>PALMER</name>
        <description>PALMER</description>
        <Point>
        <coordinates>-123.113736,42.130942,1140.000000</coordinates>
        </Point>
      </Placemark>
      <Placemark>
        <name>PICKET</name>
        <description>PICKET</description>
        <Point>
        <coordinates>-123.305088,42.376932,824.000000</coordinates>
        </Point>
      </Placemark>
      <Placemark>
        <name>PIKES</name>
        <description>PIKES</description>
        <Point>
        <coordinates>-123.096744,42.390068,912.000000</coordinates>
        </Point>
      </Placemark>
      <Placemark>
        <name>PLAISA</name>
        <description>PLAISA</description>
        <Point>
        <coordinates>-123.272072,42.241292,423.000000</coordinates>
        </Point>
      </Placemark>
      <Placemark>
        <name>PORMAN</name>
        <description>PORMAN</description>
        <Point>
        <coordinates>-122.956361,42.265185,957.000000</coordinates>
        </Point>
      </Placemark>
      <Placemark>
        <name>PRSPCT</name>
        <description>PRSPCT</description>
        <Point>
        <coordinates>-123.323048,42.285849,1403.000000</coordinates>
        </Point>
      </Placemark>
      <Placemark>
        <name>PURCE</name>
        <description>PURCE</description>
        <Point>
        <coordinates>-123.044464,42.178772,457.000000</coordinates>
        </Point>
      </Placemark>
      <Placemark>
        <name>QTZ-PK</name>
        <description>QTZ-PK</description>
        <Point>
        <coordinates>-123.169721,42.226251,883.000000</coordinates>
        </Point>
      </Placemark>
      <Placemark>
        <name>RAB-PK</name>
        <description>RAB-PK</description>
        <Point>
        <coordinates>-123.086054,42.274897,1147.000000</coordinates>
        </Point>
      </Placemark>
      <Placemark>
        <name>RABIES</name>
        <description>RABIES</description>
        <Point>
        <coordinates>-123.051494,42.263542,928.000000</coordinates>
        </Point>
      </Placemark>
      <Placemark>
        <name>REDLIL</name>
        <description>REDLIL</description>
        <Point>
        <coordinates>-123.119347,42.238508,408.000000</coordinates>
        </Point>
      </Placemark>
      <Placemark>
        <name>RIES</name>
        <description>RIES</description>
        <Point>
        <coordinates>-123.283447,42.342899,425.000000</coordinates>
        </Point>
      </Placemark>
      <Placemark>
        <name>ROGRIV</name>
        <description>ROGRIV</description>
        <Point>
        <coordinates>-123.175822,42.437615,307.000000</coordinates>
        </Point>
      </Placemark>
      <Placemark>
        <name>RUCH</name>
        <description>RUCH</description>
        <Point>
        <coordinates>-123.042286,42.236482,472.000000</coordinates>
        </Point>
      </Placemark>
      <Placemark>
        <name>SAMS</name>
        <description>SAMS</description>
        <Point>
        <coordinates>-122.974332,42.500150,401.000000</coordinates>
        </Point>
      </Placemark>
      <Placemark>
        <name>SQUIRS</name>
        <description>SQUIRS</description>
        <Point>
        <coordinates>-123.025638,42.218655,1006.000000</coordinates>
        </Point>
      </Placemark>
      <Placemark>
        <name>STAVER</name>
        <description>STAVER</description>
        <Point>
        <coordinates>-123.091734,42.102348,510.000000</coordinates>
        </Point>
      </Placemark>
      <Placemark>
        <name>STERCR</name>
        <description>STERCR</description>
        <Point>
        <coordinates>-122.968554,42.251346,983.000000</coordinates>
        </Point>
      </Placemark>
      <Placemark>
        <name>STERLI</name>
        <description>STERLI</description>
        <Point>
        <coordinates>-122.942769,42.224750,826.000000</coordinates>
        </Point>
      </Placemark>
      <Placemark>
        <name>SUGARL</name>
        <description>SUGARL</description>
        <Point>
        <coordinates>-123.123955,42.283436,1027.000000</coordinates>
        </Point>
      </Placemark>
      <Placemark>
        <name>SUGRLF</name>
        <description>SUGRLF</description>
        <Point>
        <coordinates>-123.310136,42.121060,2030.000000</coordinates>
        </Point>
      </Placemark>
      <Placemark>
        <name>TLWBOX</name>
        <description>TLWBOX</description>
        <Point>
        <coordinates>-123.151497,42.196321,1530.000000</coordinates>
        </Point>
      </Placemark>
      <Placemark>
        <name>TROVIN</name>
        <description>TROVIN</description>
        <Point>
        <coordinates>-123.221931,42.304182,397.000000</coordinates>
        </Point>
      </Placemark>
      <Placemark>
        <name>VLYVEW</name>
        <description>VLYVEW</description>
        <Point>
        <coordinates>-123.051304,42.222942,454.000000</coordinates>
        </Point>
      </Placemark>
      <Placemark>
        <name>WALKER</name>
        <description>WALKER</description>
        <Point>
        <coordinates>-123.334459,42.537048,1175.000000</coordinates>
        </Point>
      </Placemark>
      <Placemark>
        <name>WALKLZ</name>
        <description>WALKLZ</description>
        <Point>
        <coordinates>-123.383167,42.546630,314.000000</coordinates>
        </Point>
      </Placemark>
      <Placemark>
        <name>WDLAUN</name>
        <description>WDLAUN</description>
        <Point>
        <coordinates>-123.003611,42.231347,1164.000000</coordinates>
        </Point>
      </Placemark>
      <Placemark>
        <name>WEL-RG</name>
        <description>WEL-RG</description>
        <Point>
        <coordinates>-123.139317,42.253373,673.000000</coordinates>
        </Point>
      </Placemark>
      <Placemark>
        <name>WELAND</name>
        <description>WELAND</description>
        <Point>
        <coordinates>-123.050948,42.217575,448.000000</coordinates>
        </Point>
      </Placemark>
      <Placemark>
        <name>WESTLZ</name>
        <description>WESTLZ</description>
        <Point>
        <coordinates>-122.941977,42.321800,439.000000</coordinates>
        </Point>
      </Placemark>
      <Placemark>
        <name>WIMER</name>
        <description>WIMER</description>
        <Point>
        <coordinates>-123.146098,42.543350,357.000000</coordinates>
        </Point>
      </Placemark>
      <Placemark>
        <name>WMS-OL</name>
        <description>WMM-OL</description>
        <Point>
        <coordinates>-123.245466,42.222232,931.000000</coordinates>
        </Point>
      </Placemark>
      <Placemark>
        <name>WOLFCK</name>
        <description>WOLFCK</description>
        <Point>
        <coordinates>-123.397345,42.694392,386.000000</coordinates>
        </Point>
      </Placemark>
      <Placemark>
        <name>WONDER</name>
        <description>WONDER</description>
        <Point>
        <coordinates>-123.557810,42.353529,396.000000</coordinates>
        </Point>
      </Placemark>
      <Placemark>
        <name>WOODRA</name>
        <description>WOODRA</description>
        <Point>
        <coordinates>-123.002545,42.223071,1260.000000</coordinates>
        </Point>
      </Placemark>
      <Placemark>
        <name>YALECR</name>
        <description>YALECR</description>
        <Point>
        <coordinates>-122.953331,42.148452,595.000000</coordinates>
        </Point>
      </Placemark>
      <Placemark>
        <name>BELLA</name>
        <description>BELLA ERBA</description>
        <Point>
        <coordinates>-123.038333,42.198056,467.000000</coordinates>
        </Point>
      </Placemark>
      <Placemark>
        <name>COLVER</name>
        <description>Colver field</description>
        <Point>
        <coordinates>-122.799117,42.247197,497.000000</coordinates>
        </Point>
      </Placemark>
    </Folder>
  </Document>
</kml>
